COSMOS 2251 DEB         
1 40803U 93036BWG 26062.94309648  .00001477  00000+0  36985-3 0  9997
2 40803  74.0118 258.7266 0031849  95.0653 265.4145 14.52052636599315
COSMOS 2251 DEB         
1 40808U 93036BWM 26061.26660212  .00011060  00000+0  18821-2 0  9990
2 40808  74.0471 351.7457 0007428 352.2591 166.4618 14.69135077647861
COSMOS 2251 DEB         
1 40810U 93036BWP 26062.58041519  .00003383  00000+0  71965-3 0  9990
2 40810  74.0336 280.7093 0017143  47.1494 313.1108 14.59334271628622
COSMOS 2251 DEB         
1 46271U 93036BWT 26041.51874259  .00001303  00000+0  32914-3 0  9993
2 46271  74.0483 325.7557 0038634  70.1154 290.4164 14.51605684855097
COSMOS 2251 DEB         
1 46430U 93036BWU 26058.77964069  .00008716  00000+0  20058-2 0  9995
2 46430  73.9115 210.0861 0096285 112.8262 248.3104 14.52666006808010
COSMOS 2251 DEB         
1 46432U 93036BWW 26058.22562594  .00000973  00000+0  10096-2 0  9992
2 46432  73.8747 350.7695 0471353  95.3764 337.9480 13.36748448679889
COSMOS 2251 DEB         
1 47048U 93036BXC 26060.65981544  .00005160  00000+0  11097-2 0  9991
2 47048  73.9788 169.7433 0134761 337.3286  86.8666 14.53233526608361
COSMOS 2251 DEB         
1 47051U 93036BXF 26057.25020635  .00001045  00000+0  84654-3 0  9990
2 47051  74.0972  60.1411 0340476 156.9473 223.2083 13.67442496609708
COSMOS 2251 DEB         
1 47052U 93036BXG 26058.83087242  .00000862  00000+0  30175-3 0  9998
2 47052  74.0482 199.0031 0060106 255.6122 257.3806 14.35635164628953
COSMOS 2251 DEB         
1 47053U 93036BXH 26040.07859037  .00001450  00000+0  12257-2 0  9999
2 47053  74.0576 159.6243 0381104 320.0647 225.2715 13.59837713296816
COSMOS 2251 DEB         
1 47059U 93036BXP 26055.43072193  .00069352  00000+0  28819-2 0  9997
2 47059  73.9739  80.9699 0018976 258.0232 101.8839 15.23304419 94239
COSMOS 2251 DEB         
1 47062U 93036BXS 26063.03173675  .00002824  00000+0  21518-2 0  9993
2 47062  74.0818 304.0992 0322700  50.8427  14.8132 13.72192679567178
COSMOS 2251 DEB         
1 47068U 93036BXY 26044.47297377  .00002943  00000+0  70712-3 0  9995
2 47068  74.0237  84.9309 0016285 168.6745 191.4787 14.53757237626681
COSMOS 2251 DEB         
1 47069U 93036BXZ 26054.08430688  .00021940  00000+0  26112-2 0  9990
2 47069  74.0146 329.5947 0007136 272.2683  87.7678 14.84285904735694
COSMOS 2251 DEB         
1 47073U 93036BYD 26053.80404353  .00000763  00000+0  43662-3 0  9994
2 47073  74.0811  76.4519 0158708  97.3808 264.5395 14.04887580613739
COSMOS 2251 DEB         
1 47074U 93036BYE 26046.10607934  .00007930  00000+0  24264-2 0  9999
2 47074  74.0917 190.9144 0141090 203.8881 274.7362 14.36309703 36067
