[{"OBJECT_NAME":"COSMOS 2251 DEB","OBJECT_ID":"1993-036BWG","EPOCH":"2026-03-03T22:38:03.535872","MEAN_MOTION":14.52052636,"ECCENTRICITY":0.0031849,"INCLINATION":74.0118,"RA_OF_ASC_NODE":258.7266,"ARG_OF_PERICENTER":95.0653,"MEAN_ANOMALY":265.4145,"EPHEMERIS_TYPE":0,"CLASSIFICATION_TYPE":"U","NORAD_CAT_ID":40803,"ELEMENT_SET_NO":999,"REV_AT_EPOCH":59931,"BSTAR":0.00036985,"MEAN_MOTION_DOT":1.477e-5,"MEAN_MOTION_DDOT":0},{"OBJECT_NAME":"COSMOS 2251 DEB","OBJECT_ID":"1993-036BWM","EPOCH":"2026-03-02T06:23:54.423168","MEAN_MOTION":14.69135077,"ECCENTRICITY":0.00074284,"INCLINATION":74.0471,"RA_OF_ASC_NODE":351.7457,"ARG_OF_PERICENTER":352.2591,"MEAN_ANOMALY":166.4618,"EPHEMERIS_TYPE":0,"CLASSIFICATION_TYPE":"U","NORAD_CAT_ID":40808,"ELEMENT_SET_NO":999,"REV_AT_EPOCH":64786,"BSTAR":0.0018821177,"MEAN_MOTION_DOT":0.0001106,"MEAN_MOTION_DDOT":0},{"OBJECT_NAME":"COSMOS 2251 DEB","OBJECT_ID":"1993-036BWP","EPOCH":"2026-03-03T13:55:47.872416","MEAN_MOTION":14.59334271,"ECCENTRICITY":0.0017143,"INCLINATION":74.0336,"RA_OF_ASC_NODE":280.7093,"ARG_OF_PERICENTER":47.1494,"MEAN_ANOMALY":313.1108,"EPHEMERIS_TYPE":0,"CLASSIFICATION_TYPE":"U","NORAD_CAT_ID":40810,"ELEMENT_SET_NO":999,"REV_AT_EPOCH":62862,"BSTAR":0.00071965,"MEAN_MOTION_DOT":3.383e-5,"MEAN_MOTION_DDOT":0},{"OBJECT_NAME":"COSMOS 2251 DEB","OBJECT_ID":"1993-036BWT","EPOCH":"2026-02-10T12:26:59.359776","MEAN_MOTION":14.51605684,"ECCENTRICITY":0.00386343,"INCLINATION":74.0483,"RA_OF_ASC_NODE":325.7557,"ARG_OF_PERICENTER":70.1154,"MEAN_ANOMALY":290.4164,"EPHEMERIS_TYPE":0,"CLASSIFICATION_TYPE":"U","NORAD_CAT_ID":46271,"ELEMENT_SET_NO":999,"REV_AT_EPOCH":85509,"BSTAR":0.00032913568,"MEAN_MOTION_DOT":1.303e-5,"MEAN_MOTION_DDOT":0},{"OBJECT_NAME":"COSMOS 2251 DEB","OBJECT_ID":"1993-036BWU","EPOCH":"2026-02-27T18:42:40.955616","MEAN_MOTION":14.52666006,"ECCENTRICITY":0.00962859,"INCLINATION":73.9115,"RA_OF_ASC_NODE":210.0861,"ARG_OF_PERICENTER":112.8262,"MEAN_ANOMALY":248.3104,"EPHEMERIS_TYPE":0,"CLASSIFICATION_TYPE":"U","NORAD_CAT_ID":46430,"ELEMENT_SET_NO":999,"REV_AT_EPOCH":80801,"BSTAR":0.0020057817,"MEAN_MOTION_DOT":8.716e-5,"MEAN_MOTION_DDOT":0},{"OBJECT_NAME":"COSMOS 2251 DEB","OBJECT_ID":"1993-036BWW","EPOCH":"2026-02-27T05:24:54.081216","MEAN_MOTION":13.36748448,"ECCENTRICITY":0.0471353,"INCLINATION":73.8747,"RA_OF_ASC_NODE":350.7695,"ARG_OF_PERICENTER":95.3764,"MEAN_ANOMALY":337.948,"EPHEMERIS_TYPE":0,"CLASSIFICATION_TYPE":"U","NORAD_CAT_ID":46432,"ELEMENT_SET_NO":999,"REV_AT_EPOCH":67988,"BSTAR":0.0010096,"MEAN_MOTION_DOT":9.73e-6,"MEAN_MOTION_DDOT":0},{"OBJECT_NAME":"COSMOS 2251 DEB","OBJECT_ID":"1993-036BXC","EPOCH":"2026-03-01T15:50:08.054016","MEAN_MOTION":14.53233526,"ECCENTRICITY":0.0134761,"INCLINATION":73.9788,"RA_OF_ASC_NODE":169.7433,"ARG_OF_PERICENTER":337.3286,"MEAN_ANOMALY":86.8666,"EPHEMERIS_TYPE":0,"CLASSIFICATION_TYPE":"U","NORAD_CAT_ID":47048,"ELEMENT_SET_NO":999,"REV_AT_EPOCH":60836,"BSTAR":0.0011097,"MEAN_MOTION_DOT":5.16e-5,"MEAN_MOTION_DDOT":0},{"OBJECT_NAME":"COSMOS 2251 DEB","OBJECT_ID":"1993-036BXF","EPOCH":"2026-02-26T06:00:17.828640","MEAN_MOTION":13.67442496,"ECCENTRICITY":0.0340476,"INCLINATION":74.0972,"RA_OF_ASC_NODE":60.1411,"ARG_OF_PERICENTER":156.9473,"MEAN_ANOMALY":223.2083,"EPHEMERIS_TYPE":0,"CLASSIFICATION_TYPE":"U","NORAD_CAT_ID":47051,"ELEMENT_SET_NO":999,"REV_AT_EPOCH":60970,"BSTAR":0.00084654,"MEAN_MOTION_DOT":1.045e-5,"MEAN_MOTION_DDOT":0},{"OBJECT_NAME":"COSMOS 2251 DEB","OBJECT_ID":"1993-036BXG","EPOCH":"2026-02-27T19:56:27.377088","MEAN_MOTION":14.35635164,"ECCENTRICITY":0.0060106,"INCLINATION":74.0482,"RA_OF_ASC_NODE":199.0031,"ARG_OF_PERICENTER":255.6122,"MEAN_ANOMALY":257.3806,"EPHEMERIS_TYPE":0,"CLASSIFICATION_TYPE":"U","NORAD_CAT_ID":47052,"ELEMENT_SET_NO":999,"REV_AT_EPOCH":62895,"BSTAR":0.00030174602,"MEAN_MOTION_DOT":8.62e-6,"MEAN_MOTION_DDOT":0},{"OBJECT_NAME":"COSMOS 2251 DEB","OBJECT_ID":"1993-036BXH","EPOCH":"2026-02-09T01:53:10.207968","MEAN_MOTION":13.59837713,"ECCENTRICITY":0.03811045,"INCLINATION":74.0576,"RA_OF_ASC_NODE":159.6243,"ARG_OF_PERICENTER":320.0647,"MEAN_ANOMALY":225.2715,"EPHEMERIS_TYPE":0,"CLASSIFICATION_TYPE":"U","NORAD_CAT_ID":47053,"ELEMENT_SET_NO":999,"REV_AT_EPOCH":29681,"BSTAR":0.0012257384,"MEAN_MOTION_DOT":1.45e-5,"MEAN_MOTION_DDOT":0},{"OBJECT_NAME":"COSMOS 2251 DEB","OBJECT_ID":"1993-036BXP","EPOCH":"2026-02-24T10:20:14.374752","MEAN_MOTION":15.23304419,"ECCENTRICITY":0.00189769,"INCLINATION":73.9739,"RA_OF_ASC_NODE":80.9699,"ARG_OF_PERICENTER":258.0232,"MEAN_ANOMALY":101.8839,"EPHEMERIS_TYPE":0,"CLASSIFICATION_TYPE":"U","NORAD_CAT_ID":47059,"ELEMENT_SET_NO":999,"REV_AT_EPOCH":9423,"BSTAR":0.0028818799,"MEAN_MOTION_DOT":0.00069352,"MEAN_MOTION_DDOT":0},{"OBJECT_NAME":"COSMOS 2251 DEB","OBJECT_ID":"1993-036BXS","EPOCH":"2026-03-04T00:45:42.055200","MEAN_MOTION":13.72192679,"ECCENTRICITY":0.03227,"INCLINATION":74.0818,"RA_OF_ASC_NODE":304.0992,"ARG_OF_PERICENTER":50.8427,"MEAN_ANOMALY":14.8132,"EPHEMERIS_TYPE":0,"CLASSIFICATION_TYPE":"U","NORAD_CAT_ID":47062,"ELEMENT_SET_NO":999,"REV_AT_EPOCH":56717,"BSTAR":0.0021518,"MEAN_MOTION_DOT":2.824e-5,"MEAN_MOTION_DDOT":0},{"OBJECT_NAME":"COSMOS 2251 DEB","OBJECT_ID":"1993-036BXY","EPOCH":"2026-02-13T11:21:04.933728","MEAN_MOTION":14.53757237,"ECCENTRICITY":0.00162854,"INCLINATION":74.0237,"RA_OF_ASC_NODE":84.9309,"ARG_OF_PERICENTER":168.6745,"MEAN_ANOMALY":191.4787,"EPHEMERIS_TYPE":0,"CLASSIFICATION_TYPE":"U","NORAD_CAT_ID":47068,"ELEMENT_SET_NO":999,"REV_AT_EPOCH":62668,"BSTAR":0.00070711689,"MEAN_MOTION_DOT":2.943e-5,"MEAN_MOTION_DDOT":0},{"OBJECT_NAME":"COSMOS 2251 DEB","OBJECT_ID":"1993-036BXZ","EPOCH":"2026-02-23T02:01:24.114432","MEAN_MOTION":14.84285904,"ECCENTRICITY":0.00071366,"INCLINATION":74.0146,"RA_OF_ASC_NODE":329.5947,"ARG_OF_PERICENTER":272.2683,"MEAN_ANOMALY":87.7678,"EPHEMERIS_TYPE":0,"CLASSIFICATION_TYPE":"U","NORAD_CAT_ID":47069,"ELEMENT_SET_NO":999,"REV_AT_EPOCH":73569,"BSTAR":0.0026112493,"MEAN_MOTION_DOT":0.0002194,"MEAN_MOTION_DDOT":0},{"OBJECT_NAME":"COSMOS 2251 DEB","OBJECT_ID":"1993-036BYD","EPOCH":"2026-02-22T19:17:49.360992","MEAN_MOTION":14.0488758,"ECCENTRICITY":0.01587081,"INCLINATION":74.0811,"RA_OF_ASC_NODE":76.4519,"ARG_OF_PERICENTER":97.3808,"MEAN_ANOMALY":264.5395,"EPHEMERIS_TYPE":0,"CLASSIFICATION_TYPE":"U","NORAD_CAT_ID":47073,"ELEMENT_SET_NO":999,"REV_AT_EPOCH":61373,"BSTAR":0.00043661801,"MEAN_MOTION_DOT":7.63e-6,"MEAN_MOTION_DDOT":0},{"OBJECT_NAME":"COSMOS 2251 DEB","OBJECT_ID":"1993-036BYE","EPOCH":"2026-02-15T02:32:45.254976","MEAN_MOTION":14.36309703,"ECCENTRICITY":0.01410908,"INCLINATION":74.0917,"RA_OF_ASC_NODE":190.9144,"ARG_OF_PERICENTER":203.8881,"MEAN_ANOMALY":274.7362,"EPHEMERIS_TYPE":0,"CLASSIFICATION_TYPE":"U","NORAD_CAT_ID":47074,"ELEMENT_SET_NO":999,"REV_AT_EPOCH":3606,"BSTAR":0.0024264324,"MEAN_MOTION_DOT":7.93e-5,"MEAN_MOTION_DDOT":0}]
